{
    "links": {
        "self": "http://www.neowsapp.com/rest/v1/neo/3842760?api_key=iIulBulltgU6a56xZRHN4H3l9WmuAYTsLGpBGhQ2"
    },
    "id": "3842760",
    "neo_reference_id": "3842760",
    "name": "(2019 LK1)",
    "designation": "2019 LK1",
    "nasa_jpl_url": "http://ssd.jpl.nasa.gov/sbdb.cgi?sstr=3842760",
    "absolute_magnitude_h": 24.1,
    "estimated_diameter": {
        "kilometers": {
            "estimated_diameter_min": 0.040230458,
            "estimated_diameter_max": 0.0899580388
        },
        "meters": {
            "estimated_diameter_min": 40.2304579834,
            "estimated_diameter_max": 89.9580388169
        },
        "miles": {
            "estimated_diameter_min": 0.0249980399,
            "estimated_diameter_max": 0.0558973165
        },
        "feet": {
            "estimated_diameter_min": 131.9896957704,
            "estimated_diameter_max": 295.1379320721
        }
    },
    "is_potentially_hazardous_asteroid": false,
    "close_approach_data": [
        {
            "close_approach_date": "2019-05-31",
            "close_approach_date_full": "2019-May-31 18:45",
            "epoch_date_close_approach": 1559328300000,
            "relative_velocity": {
                "kilometers_per_second": "7.285314712",
                "kilometers_per_hour": "26227.1329633105",
                "miles_per_hour": "16296.5204793415"
            },
            "miss_distance": {
                "astronomical": "0.1787519053",
                "lunar": "69.5344911617",
                "kilometers": "26740904.291321711",
                "miles": "16616027.4311971718"
            },
            "orbiting_body": "Earth"
        }
    ],
    "orbital_data": {
        "orbit_id": "1",
        "orbit_determination_date": "2019-06-05 08:42:06",
        "first_observation_date": "2019-05-26",
        "last_observation_date": "2019-06-05",
        "data_arc_in_days": 10,
        "observations_used": 24,
        "orbit_uncertainty": "8",
        "minimum_orbit_intersection": ".163274",
        "jupiter_tisserand_invariant": "3.328",
        "epoch_osculation": "2458634.5",
        "eccentricity": ".5082257378361318",
        "semi_major_axis": "2.389943102234094",
        "inclination": "9.790381234790647",
        "ascending_node_longitude": "251.2951491262642",
        "orbital_period": "1349.521380537679",
        "perihelion_distance": "1.175312505714798",
        "perihelion_argument": "352.0031806693717",
        "aphelion_distance": "3.60457369875339",
        "perihelion_time": "2458632.634413081089",
        "mean_anomaly": ".4976662841313231",
        "mean_motion": ".2667612423128621",
        "equinox": "J2000",
        "orbit_class": {
            "orbit_class_type": "AMO",
            "orbit_class_description": "Near-Earth asteroid orbits similar to that of 1221 Amor",
            "orbit_class_range": "1.017 AU < q (perihelion) < 1.3 AU"
        }
    },
    "is_sentry_object": false
}